ONEWEB-0512             
1 54130U 22138T   24266.69302741  .00000093  00000+0  19998-3 0  9991
2 54130  87.9109  70.7823 0001589 109.5992 250.5313 13.19724766 93382
ONEWEB-0513             
1 54131U 22138U   24266.73956798  .00000061  00000+0  12027-3 0  9995
2 54131  87.9102  70.7648 0001427 112.5652 247.5631 13.19728143 93279
ONEWEB-0514             
1 54132U 22138V   24266.70882505  .00000135  00000+0  30535-3 0  9993
2 54132  87.9099  70.7629 0001707  90.5361 269.5967 13.19725491 93401
ONEWEB-0515             
1 54133U 22138W   24266.77694645  .00000054  00000+0  10116-3 0  9990
2 54133  87.9248  40.2002 0002625  83.6804 276.4628 13.20772668 95829
ONEWEB-0516             
1 54134U 22138X   24266.75936008  .00000123  00000+0  27365-3 0  9992
2 54134  87.9111  70.7707 0001797  93.3165 266.8173 13.19725168 93418
ONEWEB-0517             
1 54135U 22138Y   24266.89044536  .00000070  00000+0  14291-3 0  9999
2 54135  87.9102  70.7226 0001321  87.5506 272.5778 13.19722731 93432
ONEWEB-0518             
1 54136U 22138Z   24266.90942034  .00000067  00000+0  13375-3 0  9990
2 54136  87.9110  70.7382 0001595  92.1763 267.9552 13.19724411 93430
ONEWEB-0519             
1 54137U 22138AA  24266.70722193  .00000148  00000+0  33741-3 0  9990
2 54137  87.9101  70.7540 0001406  93.7786 266.3508 13.19720676 93411
